{
"type": "FeatureCollection",
"features": [
{ "type": "Feature", "properties": { "Station": "PALO ALTO CA \/ BRYANT # 1", "Latitude": 37.446651, "Longitude": -122.161919, "zone_type": "P", "top_station": "BRYANT", "functional_zone_type": "mix_use" }, "geometry": { "type": "Point", "coordinates": [ -122.161919, 37.446651 ] } },
{ "type": "Feature", "properties": { "Station": "PALO ALTO CA \/ BRYANT #1", "Latitude": 37.44661121, "Longitude": -122.1623077, "zone_type": "P", "top_station": "BRYANT", "functional_zone_type": "mix_use" }, "geometry": { "type": "Point", "coordinates": [ -122.1623077, 37.44661121 ] } },
{ "type": "Feature", "properties": { "Station": "PALO ALTO CA \/ BRYANT #2", "Latitude": 37.4465089, "Longitude": -122.1621416, "zone_type": "P", "top_station": "BRYANT", "functional_zone_type": "mix_use" }, "geometry": { "type": "Point", "coordinates": [ -122.1621416, 37.4465089 ] } },
{ "type": "Feature", "properties": { "Station": "PALO ALTO CA \/ BRYANT #3", "Latitude": 37.446583, "Longitude": -122.162109, "zone_type": "P", "top_station": "BRYANT", "functional_zone_type": "mix_use" }, "geometry": { "type": "Point", "coordinates": [ -122.162109, 37.446583 ] } },
{ "type": "Feature", "properties": { "Station": "PALO ALTO CA \/ BRYANT #4", "Latitude": 37.446785, "Longitude": -122.162369, "zone_type": "P", "top_station": "BRYANT", "functional_zone_type": "mix_use" }, "geometry": { "type": "Point", "coordinates": [ -122.162369, 37.446785 ] } },
{ "type": "Feature", "properties": { "Station": "PALO ALTO CA \/ BRYANT #5", "Latitude": 37.44669, "Longitude": -122.162231, "zone_type": "P", "top_station": "BRYANT", "functional_zone_type": "mix_use" }, "geometry": { "type": "Point", "coordinates": [ -122.162231, 37.44669 ] } },
{ "type": "Feature", "properties": { "Station": "PALO ALTO CA \/ BRYANT #6", "Latitude": 37.446667, "Longitude": -122.16217, "zone_type": "P", "top_station": "BRYANT", "functional_zone_type": "mix_use" }, "geometry": { "type": "Point", "coordinates": [ -122.16217, 37.446667 ] } },
{ "type": "Feature", "properties": { "Station": "PALO ALTO CA \/ CAMBRIDGE #1", "Latitude": 37.42623822, "Longitude": -122.1460379, "zone_type": "P", "top_station": "CAMBRIDGE", "functional_zone_type": "mix_use" }, "geometry": { "type": "Point", "coordinates": [ -122.1460379, 37.42623822 ] } },
{ "type": "Feature", "properties": { "Station": "PALO ALTO CA \/ CAMBRIDGE #2", "Latitude": 37.42627973, "Longitude": -122.1460338, "zone_type": "P", "top_station": "CAMBRIDGE", "functional_zone_type": "mix_use" }, "geometry": { "type": "Point", "coordinates": [ -122.1460338, 37.42627973 ] } },
{ "type": "Feature", "properties": { "Station": "PALO ALTO CA \/ CAMBRIDGE #3", "Latitude": 37.426208, "Longitude": -122.146011, "zone_type": "P", "top_station": "CAMBRIDGE", "functional_zone_type": "mix_use" }, "geometry": { "type": "Point", "coordinates": [ -122.146011, 37.426208 ] } },
{ "type": "Feature", "properties": { "Station": "PALO ALTO CA \/ CAMBRIDGE #4", "Latitude": 37.426178, "Longitude": -122.146034, "zone_type": "P", "top_station": "CAMBRIDGE", "functional_zone_type": "mix_use" }, "geometry": { "type": "Point", "coordinates": [ -122.146034, 37.426178 ] } },
{ "type": "Feature", "properties": { "Station": "PALO ALTO CA \/ CAMBRIDGE #5", "Latitude": 37.426228, "Longitude": -122.145981, "zone_type": "P", "top_station": "CAMBRIDGE", "functional_zone_type": "mix_use" }, "geometry": { "type": "Point", "coordinates": [ -122.145981, 37.426228 ] } },
{ "type": "Feature", "properties": { "Station": "PALO ALTO CA \/ HAMILTON #1", "Latitude": 37.44449327, "Longitude": -122.1603669, "zone_type": "P", "top_station": "HAMILTON", "functional_zone_type": "mix_use" }, "geometry": { "type": "Point", "coordinates": [ -122.1603669, 37.44449327 ] } },
{ "type": "Feature", "properties": { "Station": "PALO ALTO CA \/ HAMILTON #2", "Latitude": 37.44458436, "Longitude": -122.1601961, "zone_type": "P", "top_station": "HAMILTON", "functional_zone_type": "mix_use" }, "geometry": { "type": "Point", "coordinates": [ -122.1601961, 37.44458436 ] } },
{ "type": "Feature", "properties": { "Station": "PALO ALTO CA \/ HIGH #1", "Latitude": 37.4434336, "Longitude": -122.1629311, "zone_type": "P", "top_station": "HIGH", "functional_zone_type": "mix_use" }, "geometry": { "type": "Point", "coordinates": [ -122.1629311, 37.4434336 ] } },
{ "type": "Feature", "properties": { "Station": "PALO ALTO CA \/ HIGH #2", "Latitude": 37.44327657, "Longitude": -122.1631581, "zone_type": "P", "top_station": "HIGH", "functional_zone_type": "mix_use" }, "geometry": { "type": "Point", "coordinates": [ -122.1631581, 37.44327657 ] } },
{ "type": "Feature", "properties": { "Station": "PALO ALTO CA \/ HIGH #3", "Latitude": 37.44334653, "Longitude": -122.1631066, "zone_type": "P", "top_station": "HIGH", "functional_zone_type": "mix_use" }, "geometry": { "type": "Point", "coordinates": [ -122.1631066, 37.44334653 ] } },
{ "type": "Feature", "properties": { "Station": "PALO ALTO CA \/ HIGH #4", "Latitude": 37.44352445, "Longitude": -122.1629788, "zone_type": "P", "top_station": "HIGH", "functional_zone_type": "mix_use" }, "geometry": { "type": "Point", "coordinates": [ -122.1629788, 37.44352445 ] } },
{ "type": "Feature", "properties": { "Station": "PALO ALTO CA \/ MPL #1", "Latitude": 37.422146, "Longitude": -122.112511, "zone_type": "P", "top_station": "MPL", "functional_zone_type": "residential" }, "geometry": { "type": "Point", "coordinates": [ -122.112511, 37.422146 ] } },
{ "type": "Feature", "properties": { "Station": "PALO ALTO CA \/ MPL #2", "Latitude": 37.422169, "Longitude": -122.11248, "zone_type": "P", "top_station": "MPL", "functional_zone_type": "residential" }, "geometry": { "type": "Point", "coordinates": [ -122.11248, 37.422169 ] } },
{ "type": "Feature", "properties": { "Station": "PALO ALTO CA \/ MPL #3", "Latitude": 37.422119, "Longitude": -122.112556, "zone_type": "P", "top_station": "MPL", "functional_zone_type": "residential" }, "geometry": { "type": "Point", "coordinates": [ -122.112556, 37.422119 ] } },
{ "type": "Feature", "properties": { "Station": "PALO ALTO CA \/ MPL #4", "Latitude": 37.422104, "Longitude": -122.11351, "zone_type": "P", "top_station": "MPL", "functional_zone_type": "residential" }, "geometry": { "type": "Point", "coordinates": [ -122.11351, 37.422104 ] } },
{ "type": "Feature", "properties": { "Station": "PALO ALTO CA \/ MPL #5", "Latitude": 37.42212149, "Longitude": -122.113486, "zone_type": "P", "top_station": "MPL", "functional_zone_type": "residential" }, "geometry": { "type": "Point", "coordinates": [ -122.113486, 37.42212149 ] } },
{ "type": "Feature", "properties": { "Station": "PALO ALTO CA \/ MPL #6", "Latitude": 37.4221364, "Longitude": -122.1134533, "zone_type": "P", "top_station": "MPL", "functional_zone_type": "residential" }, "geometry": { "type": "Point", "coordinates": [ -122.1134533, 37.4221364 ] } },
{ "type": "Feature", "properties": { "Station": "PALO ALTO CA \/ RINCONADA LIB 1", "Latitude": 37.44549631, "Longitude": -122.1388613, "zone_type": "P", "top_station": "RINCONADA LIB", "functional_zone_type": "residential" }, "geometry": { "type": "Point", "coordinates": [ -122.1388613, 37.44549631 ] } },
{ "type": "Feature", "properties": { "Station": "PALO ALTO CA \/ RINCONADA LIB 2", "Latitude": 37.44549838, "Longitude": -122.1388964, "zone_type": "P", "top_station": "RINCONADA LIB", "functional_zone_type": "residential" }, "geometry": { "type": "Point", "coordinates": [ -122.1388964, 37.44549838 ] } },
{ "type": "Feature", "properties": { "Station": "PALO ALTO CA \/ RINCONADA LIB 3", "Latitude": 37.4454956, "Longitude": -122.1389317, "zone_type": "P", "top_station": "RINCONADA LIB", "functional_zone_type": "residential" }, "geometry": { "type": "Point", "coordinates": [ -122.1389317, 37.4454956 ] } },
{ "type": "Feature", "properties": { "Station": "PALO ALTO CA \/ SHERMAN 1", "Latitude": 37.426598, "Longitude": -122.143288, "zone_type": "P", "top_station": "SHERMAN", "functional_zone_type": "mix_use" }, "geometry": { "type": "Point", "coordinates": [ -122.143288, 37.426598 ] } },
{ "type": "Feature", "properties": { "Station": "PALO ALTO CA \/ SHERMAN 11", "Latitude": 37.42672, "Longitude": -122.143326, "zone_type": "P", "top_station": "SHERMAN", "functional_zone_type": "mix_use" }, "geometry": { "type": "Point", "coordinates": [ -122.143326, 37.42672 ] } },
{ "type": "Feature", "properties": { "Station": "PALO ALTO CA \/ SHERMAN 14", "Latitude": 37.426777, "Longitude": -122.143311, "zone_type": "P", "top_station": "SHERMAN", "functional_zone_type": "mix_use" }, "geometry": { "type": "Point", "coordinates": [ -122.143311, 37.426777 ] } },
{ "type": "Feature", "properties": { "Station": "PALO ALTO CA \/ SHERMAN 15", "Latitude": 37.426773, "Longitude": -122.143402, "zone_type": "P", "top_station": "SHERMAN", "functional_zone_type": "mix_use" }, "geometry": { "type": "Point", "coordinates": [ -122.143402, 37.426773 ] } },
{ "type": "Feature", "properties": { "Station": "PALO ALTO CA \/ SHERMAN 17", "Latitude": 37.426823, "Longitude": -122.143394, "zone_type": "P", "top_station": "SHERMAN", "functional_zone_type": "mix_use" }, "geometry": { "type": "Point", "coordinates": [ -122.143394, 37.426823 ] } },
{ "type": "Feature", "properties": { "Station": "PALO ALTO CA \/ SHERMAN 2", "Latitude": 37.426537, "Longitude": -122.143341, "zone_type": "P", "top_station": "SHERMAN", "functional_zone_type": "mix_use" }, "geometry": { "type": "Point", "coordinates": [ -122.143341, 37.426537 ] } },
{ "type": "Feature", "properties": { "Station": "PALO ALTO CA \/ SHERMAN 3", "Latitude": 37.42662, "Longitude": -122.143326, "zone_type": "P", "top_station": "SHERMAN", "functional_zone_type": "mix_use" }, "geometry": { "type": "Point", "coordinates": [ -122.143326, 37.42662 ] } },
{ "type": "Feature", "properties": { "Station": "PALO ALTO CA \/ SHERMAN 4", "Latitude": 37.426563, "Longitude": -122.143379, "zone_type": "P", "top_station": "SHERMAN", "functional_zone_type": "mix_use" }, "geometry": { "type": "Point", "coordinates": [ -122.143379, 37.426563 ] } },
{ "type": "Feature", "properties": { "Station": "PALO ALTO CA \/ SHERMAN 5", "Latitude": 37.426643, "Longitude": -122.143372, "zone_type": "P", "top_station": "SHERMAN", "functional_zone_type": "mix_use" }, "geometry": { "type": "Point", "coordinates": [ -122.143372, 37.426643 ] } },
{ "type": "Feature", "properties": { "Station": "PALO ALTO CA \/ SHERMAN 6", "Latitude": 37.426582, "Longitude": -122.143425, "zone_type": "P", "top_station": "SHERMAN", "functional_zone_type": "mix_use" }, "geometry": { "type": "Point", "coordinates": [ -122.143425, 37.426582 ] } },
{ "type": "Feature", "properties": { "Station": "PALO ALTO CA \/ SHERMAN 7", "Latitude": 37.426655, "Longitude": -122.143417, "zone_type": "P", "top_station": "SHERMAN", "functional_zone_type": "mix_use" }, "geometry": { "type": "Point", "coordinates": [ -122.143417, 37.426655 ] } },
{ "type": "Feature", "properties": { "Station": "PALO ALTO CA \/ SHERMAN 8", "Latitude": 37.426617, "Longitude": -122.143456, "zone_type": "P", "top_station": "SHERMAN", "functional_zone_type": "mix_use" }, "geometry": { "type": "Point", "coordinates": [ -122.143456, 37.426617 ] } },
{ "type": "Feature", "properties": { "Station": "PALO ALTO CA \/ SHERMAN 9", "Latitude": 37.42667, "Longitude": -122.143257, "zone_type": "P", "top_station": "SHERMAN", "functional_zone_type": "mix_use" }, "geometry": { "type": "Point", "coordinates": [ -122.143257, 37.42667 ] } },
{ "type": "Feature", "properties": { "Station": "PALO ALTO CA \/ TED THOMPSON #1", "Latitude": 37.428318, "Longitude": -122.144188, "zone_type": "P", "top_station": "TED THOMPSON", "functional_zone_type": "mix_use" }, "geometry": { "type": "Point", "coordinates": [ -122.144188, 37.428318 ] } },
{ "type": "Feature", "properties": { "Station": "PALO ALTO CA \/ TED THOMPSON #2", "Latitude": 37.42857, "Longitude": -122.143929, "zone_type": "P", "top_station": "TED THOMPSON", "functional_zone_type": "mix_use" }, "geometry": { "type": "Point", "coordinates": [ -122.143929, 37.42857 ] } },
{ "type": "Feature", "properties": { "Station": "PALO ALTO CA \/ TED THOMPSON #3", "Latitude": 37.428623, "Longitude": -122.144043, "zone_type": "P", "top_station": "TED THOMPSON", "functional_zone_type": "mix_use" }, "geometry": { "type": "Point", "coordinates": [ -122.144043, 37.428623 ] } },
{ "type": "Feature", "properties": { "Station": "PALO ALTO CA \/ TED THOMPSON #4", "Latitude": 37.4286, "Longitude": -122.14399, "zone_type": "P", "top_station": "TED THOMPSON", "functional_zone_type": "mix_use" }, "geometry": { "type": "Point", "coordinates": [ -122.14399, 37.4286 ] } },
{ "type": "Feature", "properties": { "Station": "PALO ALTO CA \/ WEBSTER #1", "Latitude": 37.44829771, "Longitude": -122.1582655, "zone_type": "P", "top_station": "WEBSTER", "functional_zone_type": "mix_use" }, "geometry": { "type": "Point", "coordinates": [ -122.1582655, 37.44829771 ] } },
{ "type": "Feature", "properties": { "Station": "PALO ALTO CA \/ WEBSTER #2", "Latitude": 37.44825424, "Longitude": -122.1581972, "zone_type": "P", "top_station": "WEBSTER", "functional_zone_type": "mix_use" }, "geometry": { "type": "Point", "coordinates": [ -122.1581972, 37.44825424 ] } },
{ "type": "Feature", "properties": { "Station": "PALO ALTO CA \/ WEBSTER #3", "Latitude": 37.44875471, "Longitude": -122.1580248, "zone_type": "P", "top_station": "WEBSTER", "functional_zone_type": "mix_use" }, "geometry": { "type": "Point", "coordinates": [ -122.1580248, 37.44875471 ] } }
]
}
