{
"type": "FeatureCollection",
"features": [
{ "type": "Feature", "properties": { "Station": "PALO ALTO CA \/ BRYANT # 1", "Latitude": 37.446651, "Longitude": -122.161919, "zone_type": "P", "top_station": "BRYANT", "functional_zone_type": "mix_use" }, "geometry": { "type": "Polygon", "coordinates": [ [ [ -122.161580687762282, 37.446865916972527 ], [ -122.161506797548498, 37.446821556589654 ], [ -122.161397951256518, 37.446754535368058 ], [ -122.162003841661019, 37.446142328197695 ], [ -122.16286809462909, 37.446696329624793 ], [ -122.162587665586159, 37.446973754996492 ], [ -122.162240334871328, 37.446756727077911 ], [ -122.162213613730017, 37.4467836677142 ], [ -122.162078487033284, 37.446698504902997 ], [ -122.161838204721334, 37.446940913947898 ], [ -122.161786190207877, 37.446992385707581 ], [ -122.161580687762282, 37.446865916972527 ] ] ] } },
{ "type": "Feature", "properties": { "Station": "PALO ALTO CA \/ BRYANT #1", "Latitude": 37.44661121, "Longitude": -122.1623077, "zone_type": "P", "top_station": "BRYANT", "functional_zone_type": "mix_use" }, "geometry": { "type": "Polygon", "coordinates": [ [ [ -122.161580687762282, 37.446865916972527 ], [ -122.161506797548498, 37.446821556589654 ], [ -122.161397951256518, 37.446754535368058 ], [ -122.162003841661019, 37.446142328197695 ], [ -122.16286809462909, 37.446696329624793 ], [ -122.162587665586159, 37.446973754996492 ], [ -122.162240334871328, 37.446756727077911 ], [ -122.162213613730017, 37.4467836677142 ], [ -122.162078487033284, 37.446698504902997 ], [ -122.161838204721334, 37.446940913947898 ], [ -122.161786190207877, 37.446992385707581 ], [ -122.161580687762282, 37.446865916972527 ] ] ] } },
{ "type": "Feature", "properties": { "Station": "PALO ALTO CA \/ BRYANT #2", "Latitude": 37.4465089, "Longitude": -122.1621416, "zone_type": "P", "top_station": "BRYANT", "functional_zone_type": "mix_use" }, "geometry": { "type": "Polygon", "coordinates": [ [ [ -122.161580687762282, 37.446865916972527 ], [ -122.161506797548498, 37.446821556589654 ], [ -122.161397951256518, 37.446754535368058 ], [ -122.162003841661019, 37.446142328197695 ], [ -122.16286809462909, 37.446696329624793 ], [ -122.162587665586159, 37.446973754996492 ], [ -122.162240334871328, 37.446756727077911 ], [ -122.162213613730017, 37.4467836677142 ], [ -122.162078487033284, 37.446698504902997 ], [ -122.161838204721334, 37.446940913947898 ], [ -122.161786190207877, 37.446992385707581 ], [ -122.161580687762282, 37.446865916972527 ] ] ] } },
{ "type": "Feature", "properties": { "Station": "PALO ALTO CA \/ BRYANT #3", "Latitude": 37.446583, "Longitude": -122.162109, "zone_type": "P", "top_station": "BRYANT", "functional_zone_type": "mix_use" }, "geometry": { "type": "Polygon", "coordinates": [ [ [ -122.161580687762282, 37.446865916972527 ], [ -122.161506797548498, 37.446821556589654 ], [ -122.161397951256518, 37.446754535368058 ], [ -122.162003841661019, 37.446142328197695 ], [ -122.16286809462909, 37.446696329624793 ], [ -122.162587665586159, 37.446973754996492 ], [ -122.162240334871328, 37.446756727077911 ], [ -122.162213613730017, 37.4467836677142 ], [ -122.162078487033284, 37.446698504902997 ], [ -122.161838204721334, 37.446940913947898 ], [ -122.161786190207877, 37.446992385707581 ], [ -122.161580687762282, 37.446865916972527 ] ] ] } },
{ "type": "Feature", "properties": { "Station": "PALO ALTO CA \/ BRYANT #4", "Latitude": 37.446785, "Longitude": -122.162369, "zone_type": "P", "top_station": "BRYANT", "functional_zone_type": "mix_use" }, "geometry": { "type": "Polygon", "coordinates": [ [ [ -122.161580687762282, 37.446865916972527 ], [ -122.161506797548498, 37.446821556589654 ], [ -122.161397951256518, 37.446754535368058 ], [ -122.162003841661019, 37.446142328197695 ], [ -122.16286809462909, 37.446696329624793 ], [ -122.162587665586159, 37.446973754996492 ], [ -122.162240334871328, 37.446756727077911 ], [ -122.162213613730017, 37.4467836677142 ], [ -122.162078487033284, 37.446698504902997 ], [ -122.161838204721334, 37.446940913947898 ], [ -122.161786190207877, 37.446992385707581 ], [ -122.161580687762282, 37.446865916972527 ] ] ] } },
{ "type": "Feature", "properties": { "Station": "PALO ALTO CA \/ BRYANT #5", "Latitude": 37.44669, "Longitude": -122.162231, "zone_type": "P", "top_station": "BRYANT", "functional_zone_type": "mix_use" }, "geometry": { "type": "Polygon", "coordinates": [ [ [ -122.161580687762282, 37.446865916972527 ], [ -122.161506797548498, 37.446821556589654 ], [ -122.161397951256518, 37.446754535368058 ], [ -122.162003841661019, 37.446142328197695 ], [ -122.16286809462909, 37.446696329624793 ], [ -122.162587665586159, 37.446973754996492 ], [ -122.162240334871328, 37.446756727077911 ], [ -122.162213613730017, 37.4467836677142 ], [ -122.162078487033284, 37.446698504902997 ], [ -122.161838204721334, 37.446940913947898 ], [ -122.161786190207877, 37.446992385707581 ], [ -122.161580687762282, 37.446865916972527 ] ] ] } },
{ "type": "Feature", "properties": { "Station": "PALO ALTO CA \/ BRYANT #6", "Latitude": 37.446667, "Longitude": -122.16217, "zone_type": "P", "top_station": "BRYANT", "functional_zone_type": "mix_use" }, "geometry": { "type": "Polygon", "coordinates": [ [ [ -122.161580687762282, 37.446865916972527 ], [ -122.161506797548498, 37.446821556589654 ], [ -122.161397951256518, 37.446754535368058 ], [ -122.162003841661019, 37.446142328197695 ], [ -122.16286809462909, 37.446696329624793 ], [ -122.162587665586159, 37.446973754996492 ], [ -122.162240334871328, 37.446756727077911 ], [ -122.162213613730017, 37.4467836677142 ], [ -122.162078487033284, 37.446698504902997 ], [ -122.161838204721334, 37.446940913947898 ], [ -122.161786190207877, 37.446992385707581 ], [ -122.161580687762282, 37.446865916972527 ] ] ] } },
{ "type": "Feature", "properties": { "Station": "PALO ALTO CA \/ CAMBRIDGE #1", "Latitude": 37.42623822, "Longitude": -122.1460379, "zone_type": "P", "top_station": "CAMBRIDGE", "functional_zone_type": "mix_use" }, "geometry": { "type": "Polygon", "coordinates": [ [ [ -122.145511584995248, 37.426377540429144 ], [ -122.146048873827965, 37.425725174021139 ], [ -122.146459520656606, 37.42594303594521 ], [ -122.14593892398274, 37.426591544547534 ], [ -122.145511584995248, 37.426377540429144 ] ] ] } },
{ "type": "Feature", "properties": { "Station": "PALO ALTO CA \/ CAMBRIDGE #2", "Latitude": 37.42627973, "Longitude": -122.1460338, "zone_type": "P", "top_station": "CAMBRIDGE", "functional_zone_type": "mix_use" }, "geometry": { "type": "Polygon", "coordinates": [ [ [ -122.145511584995248, 37.426377540429144 ], [ -122.146048873827965, 37.425725174021139 ], [ -122.146459520656606, 37.42594303594521 ], [ -122.14593892398274, 37.426591544547534 ], [ -122.145511584995248, 37.426377540429144 ] ] ] } },
{ "type": "Feature", "properties": { "Station": "PALO ALTO CA \/ CAMBRIDGE #3", "Latitude": 37.426208, "Longitude": -122.146011, "zone_type": "P", "top_station": "CAMBRIDGE", "functional_zone_type": "mix_use" }, "geometry": { "type": "Polygon", "coordinates": [ [ [ -122.145511584995248, 37.426377540429144 ], [ -122.146048873827965, 37.425725174021139 ], [ -122.146459520656606, 37.42594303594521 ], [ -122.14593892398274, 37.426591544547534 ], [ -122.145511584995248, 37.426377540429144 ] ] ] } },
{ "type": "Feature", "properties": { "Station": "PALO ALTO CA \/ CAMBRIDGE #4", "Latitude": 37.426178, "Longitude": -122.146034, "zone_type": "P", "top_station": "CAMBRIDGE", "functional_zone_type": "mix_use" }, "geometry": { "type": "Polygon", "coordinates": [ [ [ -122.145511584995248, 37.426377540429144 ], [ -122.146048873827965, 37.425725174021139 ], [ -122.146459520656606, 37.42594303594521 ], [ -122.14593892398274, 37.426591544547534 ], [ -122.145511584995248, 37.426377540429144 ] ] ] } },
{ "type": "Feature", "properties": { "Station": "PALO ALTO CA \/ CAMBRIDGE #5", "Latitude": 37.426228, "Longitude": -122.145981, "zone_type": "P", "top_station": "CAMBRIDGE", "functional_zone_type": "mix_use" }, "geometry": { "type": "Polygon", "coordinates": [ [ [ -122.145511584995248, 37.426377540429144 ], [ -122.146048873827965, 37.425725174021139 ], [ -122.146459520656606, 37.42594303594521 ], [ -122.14593892398274, 37.426591544547534 ], [ -122.145511584995248, 37.426377540429144 ] ] ] } },
{ "type": "Feature", "properties": { "Station": "PALO ALTO CA \/ HAMILTON #1", "Latitude": 37.44449327, "Longitude": -122.1603669, "zone_type": "P", "top_station": "HAMILTON", "functional_zone_type": "mix_use" }, "geometry": { "type": "Polygon", "coordinates": [ [ [ -122.159103074223509, 37.444324580545597 ], [ -122.158642511238469, 37.44403569092912 ], [ -122.158710663821509, 37.443972510188971 ], [ -122.158950946734961, 37.443730107490971 ], [ -122.158917158862735, 37.443708802911203 ], [ -122.159203776292443, 37.443413690981572 ], [ -122.159697982783896, 37.443720507069941 ], [ -122.160941410023611, 37.444502480219803 ], [ -122.160340347595223, 37.445106976916129 ], [ -122.159103074223509, 37.444324580545597 ] ] ] } },
{ "type": "Feature", "properties": { "Station": "PALO ALTO CA \/ HAMILTON #2", "Latitude": 37.44458436, "Longitude": -122.1601961, "zone_type": "P", "top_station": "HAMILTON", "functional_zone_type": "mix_use" }, "geometry": { "type": "Polygon", "coordinates": [ [ [ -122.159103074223509, 37.444324580545597 ], [ -122.158642511238469, 37.44403569092912 ], [ -122.158710663821509, 37.443972510188971 ], [ -122.158950946734961, 37.443730107490971 ], [ -122.158917158862735, 37.443708802911203 ], [ -122.159203776292443, 37.443413690981572 ], [ -122.159697982783896, 37.443720507069941 ], [ -122.160941410023611, 37.444502480219803 ], [ -122.160340347595223, 37.445106976916129 ], [ -122.159103074223509, 37.444324580545597 ] ] ] } },
{ "type": "Feature", "properties": { "Station": "PALO ALTO CA \/ HIGH #1", "Latitude": 37.4434336, "Longitude": -122.1629311, "zone_type": "P", "top_station": "HIGH", "functional_zone_type": "mix_use" }, "geometry": { "type": "Polygon", "coordinates": [ [ [ -122.162623924003043, 37.443601053488933 ], [ -122.162943276107768, 37.443279044144802 ], [ -122.163156859104348, 37.443063545187137 ], [ -122.163425771181196, 37.443232980466966 ], [ -122.163213552051644, 37.443449311327235 ], [ -122.163186832466153, 37.443476253092854 ], [ -122.163254307031011, 37.443518834214714 ], [ -122.162959467764153, 37.443816902546729 ], [ -122.162939551044147, 37.443804383997971 ], [ -122.162623924003043, 37.443601053488933 ] ] ] } },
{ "type": "Feature", "properties": { "Station": "PALO ALTO CA \/ HIGH #2", "Latitude": 37.44327657, "Longitude": -122.1631581, "zone_type": "P", "top_station": "HIGH", "functional_zone_type": "mix_use" }, "geometry": { "type": "Polygon", "coordinates": [ [ [ -122.162623924003043, 37.443601053488933 ], [ -122.162943276107768, 37.443279044144802 ], [ -122.163156859104348, 37.443063545187137 ], [ -122.163425771181196, 37.443232980466966 ], [ -122.163213552051644, 37.443449311327235 ], [ -122.163186832466153, 37.443476253092854 ], [ -122.163254307031011, 37.443518834214714 ], [ -122.162959467764153, 37.443816902546729 ], [ -122.162939551044147, 37.443804383997971 ], [ -122.162623924003043, 37.443601053488933 ] ] ] } },
{ "type": "Feature", "properties": { "Station": "PALO ALTO CA \/ HIGH #3", "Latitude": 37.44334653, "Longitude": -122.1631066, "zone_type": "P", "top_station": "HIGH", "functional_zone_type": "mix_use" }, "geometry": { "type": "Polygon", "coordinates": [ [ [ -122.162623924003043, 37.443601053488933 ], [ -122.162943276107768, 37.443279044144802 ], [ -122.163156859104348, 37.443063545187137 ], [ -122.163425771181196, 37.443232980466966 ], [ -122.163213552051644, 37.443449311327235 ], [ -122.163186832466153, 37.443476253092854 ], [ -122.163254307031011, 37.443518834214714 ], [ -122.162959467764153, 37.443816902546729 ], [ -122.162939551044147, 37.443804383997971 ], [ -122.162623924003043, 37.443601053488933 ] ] ] } },
{ "type": "Feature", "properties": { "Station": "PALO ALTO CA \/ HIGH #4", "Latitude": 37.44352445, "Longitude": -122.1629788, "zone_type": "P", "top_station": "HIGH", "functional_zone_type": "mix_use" }, "geometry": { "type": "Polygon", "coordinates": [ [ [ -122.162623924003043, 37.443601053488933 ], [ -122.162943276107768, 37.443279044144802 ], [ -122.163156859104348, 37.443063545187137 ], [ -122.163425771181196, 37.443232980466966 ], [ -122.163213552051644, 37.443449311327235 ], [ -122.163186832466153, 37.443476253092854 ], [ -122.163254307031011, 37.443518834214714 ], [ -122.162959467764153, 37.443816902546729 ], [ -122.162939551044147, 37.443804383997971 ], [ -122.162623924003043, 37.443601053488933 ] ] ] } },
{ "type": "Feature", "properties": { "Station": "PALO ALTO CA \/ MPL #1", "Latitude": 37.422146, "Longitude": -122.112511, "zone_type": "P", "top_station": "MPL", "functional_zone_type": "residential" }, "geometry": { "type": "Polygon", "coordinates": [ [ [ -122.110090621280079, 37.419933380991132 ], [ -122.111095110809572, 37.419397852341646 ], [ -122.111545121586772, 37.419161154649224 ], [ -122.111635252844948, 37.419268143597577 ], [ -122.112517267814681, 37.420327191856423 ], [ -122.113395822959717, 37.419861331919698 ], [ -122.11344933544683, 37.419835489464795 ], [ -122.114078087597036, 37.419503397332242 ], [ -122.113116524851748, 37.418340084093757 ], [ -122.114418991433226, 37.417650944820444 ], [ -122.120197172682438, 37.421300056701675 ], [ -122.115912077089831, 37.423581807073781 ], [ -122.115090672106945, 37.422590126748005 ], [ -122.114515706884333, 37.422892530925758 ], [ -122.11398223902961, 37.422250483951714 ], [ -122.112836275522227, 37.422854291246495 ], [ -122.112707341521045, 37.422923499489357 ], [ -122.112501705920906, 37.422769534878078 ], [ -122.112312600844561, 37.422602679084811 ], [ -122.112141219784448, 37.422424043191896 ], [ -122.111988758472108, 37.422234791420735 ], [ -122.113368334673893, 37.421511615353886 ], [ -122.112995315572647, 37.421062631677579 ], [ -122.111622654138031, 37.421780434637533 ], [ -122.110702339370675, 37.420683174601784 ], [ -122.110090621280079, 37.419933380991132 ] ] ] } },
{ "type": "Feature", "properties": { "Station": "PALO ALTO CA \/ MPL #2", "Latitude": 37.422169, "Longitude": -122.11248, "zone_type": "P", "top_station": "MPL", "functional_zone_type": "residential" }, "geometry": { "type": "Polygon", "coordinates": [ [ [ -122.110090621280079, 37.419933380991132 ], [ -122.111095110809572, 37.419397852341646 ], [ -122.111545121586772, 37.419161154649224 ], [ -122.111635252844948, 37.419268143597577 ], [ -122.112517267814681, 37.420327191856423 ], [ -122.113395822959717, 37.419861331919698 ], [ -122.11344933544683, 37.419835489464795 ], [ -122.114078087597036, 37.419503397332242 ], [ -122.113116524851748, 37.418340084093757 ], [ -122.114418991433226, 37.417650944820444 ], [ -122.120197172682438, 37.421300056701675 ], [ -122.115912077089831, 37.423581807073781 ], [ -122.115090672106945, 37.422590126748005 ], [ -122.114515706884333, 37.422892530925758 ], [ -122.11398223902961, 37.422250483951714 ], [ -122.112836275522227, 37.422854291246495 ], [ -122.112707341521045, 37.422923499489357 ], [ -122.112501705920906, 37.422769534878078 ], [ -122.112312600844561, 37.422602679084811 ], [ -122.112141219784448, 37.422424043191896 ], [ -122.111988758472108, 37.422234791420735 ], [ -122.113368334673893, 37.421511615353886 ], [ -122.112995315572647, 37.421062631677579 ], [ -122.111622654138031, 37.421780434637533 ], [ -122.110702339370675, 37.420683174601784 ], [ -122.110090621280079, 37.419933380991132 ] ] ] } },
{ "type": "Feature", "properties": { "Station": "PALO ALTO CA \/ MPL #3", "Latitude": 37.422119, "Longitude": -122.112556, "zone_type": "P", "top_station": "MPL", "functional_zone_type": "residential" }, "geometry": { "type": "Polygon", "coordinates": [ [ [ -122.110090621280079, 37.419933380991132 ], [ -122.111095110809572, 37.419397852341646 ], [ -122.111545121586772, 37.419161154649224 ], [ -122.111635252844948, 37.419268143597577 ], [ -122.112517267814681, 37.420327191856423 ], [ -122.113395822959717, 37.419861331919698 ], [ -122.11344933544683, 37.419835489464795 ], [ -122.114078087597036, 37.419503397332242 ], [ -122.113116524851748, 37.418340084093757 ], [ -122.114418991433226, 37.417650944820444 ], [ -122.120197172682438, 37.421300056701675 ], [ -122.115912077089831, 37.423581807073781 ], [ -122.115090672106945, 37.422590126748005 ], [ -122.114515706884333, 37.422892530925758 ], [ -122.11398223902961, 37.422250483951714 ], [ -122.112836275522227, 37.422854291246495 ], [ -122.112707341521045, 37.422923499489357 ], [ -122.112501705920906, 37.422769534878078 ], [ -122.112312600844561, 37.422602679084811 ], [ -122.112141219784448, 37.422424043191896 ], [ -122.111988758472108, 37.422234791420735 ], [ -122.113368334673893, 37.421511615353886 ], [ -122.112995315572647, 37.421062631677579 ], [ -122.111622654138031, 37.421780434637533 ], [ -122.110702339370675, 37.420683174601784 ], [ -122.110090621280079, 37.419933380991132 ] ] ] } },
{ "type": "Feature", "properties": { "Station": "PALO ALTO CA \/ MPL #4", "Latitude": 37.422104, "Longitude": -122.11351, "zone_type": "P", "top_station": "MPL", "functional_zone_type": "residential" }, "geometry": { "type": "Polygon", "coordinates": [ [ [ -122.110090621280079, 37.419933380991132 ], [ -122.111095110809572, 37.419397852341646 ], [ -122.111545121586772, 37.419161154649224 ], [ -122.111635252844948, 37.419268143597577 ], [ -122.112517267814681, 37.420327191856423 ], [ -122.113395822959717, 37.419861331919698 ], [ -122.11344933544683, 37.419835489464795 ], [ -122.114078087597036, 37.419503397332242 ], [ -122.113116524851748, 37.418340084093757 ], [ -122.114418991433226, 37.417650944820444 ], [ -122.120197172682438, 37.421300056701675 ], [ -122.115912077089831, 37.423581807073781 ], [ -122.115090672106945, 37.422590126748005 ], [ -122.114515706884333, 37.422892530925758 ], [ -122.11398223902961, 37.422250483951714 ], [ -122.112836275522227, 37.422854291246495 ], [ -122.112707341521045, 37.422923499489357 ], [ -122.112501705920906, 37.422769534878078 ], [ -122.112312600844561, 37.422602679084811 ], [ -122.112141219784448, 37.422424043191896 ], [ -122.111988758472108, 37.422234791420735 ], [ -122.113368334673893, 37.421511615353886 ], [ -122.112995315572647, 37.421062631677579 ], [ -122.111622654138031, 37.421780434637533 ], [ -122.110702339370675, 37.420683174601784 ], [ -122.110090621280079, 37.419933380991132 ] ] ] } },
{ "type": "Feature", "properties": { "Station": "PALO ALTO CA \/ MPL #5", "Latitude": 37.42212149, "Longitude": -122.113486, "zone_type": "P", "top_station": "MPL", "functional_zone_type": "residential" }, "geometry": { "type": "Polygon", "coordinates": [ [ [ -122.110090621280079, 37.419933380991132 ], [ -122.111095110809572, 37.419397852341646 ], [ -122.111545121586772, 37.419161154649224 ], [ -122.111635252844948, 37.419268143597577 ], [ -122.112517267814681, 37.420327191856423 ], [ -122.113395822959717, 37.419861331919698 ], [ -122.11344933544683, 37.419835489464795 ], [ -122.114078087597036, 37.419503397332242 ], [ -122.113116524851748, 37.418340084093757 ], [ -122.114418991433226, 37.417650944820444 ], [ -122.120197172682438, 37.421300056701675 ], [ -122.115912077089831, 37.423581807073781 ], [ -122.115090672106945, 37.422590126748005 ], [ -122.114515706884333, 37.422892530925758 ], [ -122.11398223902961, 37.422250483951714 ], [ -122.112836275522227, 37.422854291246495 ], [ -122.112707341521045, 37.422923499489357 ], [ -122.112501705920906, 37.422769534878078 ], [ -122.112312600844561, 37.422602679084811 ], [ -122.112141219784448, 37.422424043191896 ], [ -122.111988758472108, 37.422234791420735 ], [ -122.113368334673893, 37.421511615353886 ], [ -122.112995315572647, 37.421062631677579 ], [ -122.111622654138031, 37.421780434637533 ], [ -122.110702339370675, 37.420683174601784 ], [ -122.110090621280079, 37.419933380991132 ] ] ] } },
{ "type": "Feature", "properties": { "Station": "PALO ALTO CA \/ MPL #6", "Latitude": 37.4221364, "Longitude": -122.1134533, "zone_type": "P", "top_station": "MPL", "functional_zone_type": "residential" }, "geometry": { "type": "Polygon", "coordinates": [ [ [ -122.110090621280079, 37.419933380991132 ], [ -122.111095110809572, 37.419397852341646 ], [ -122.111545121586772, 37.419161154649224 ], [ -122.111635252844948, 37.419268143597577 ], [ -122.112517267814681, 37.420327191856423 ], [ -122.113395822959717, 37.419861331919698 ], [ -122.11344933544683, 37.419835489464795 ], [ -122.114078087597036, 37.419503397332242 ], [ -122.113116524851748, 37.418340084093757 ], [ -122.114418991433226, 37.417650944820444 ], [ -122.120197172682438, 37.421300056701675 ], [ -122.115912077089831, 37.423581807073781 ], [ -122.115090672106945, 37.422590126748005 ], [ -122.114515706884333, 37.422892530925758 ], [ -122.11398223902961, 37.422250483951714 ], [ -122.112836275522227, 37.422854291246495 ], [ -122.112707341521045, 37.422923499489357 ], [ -122.112501705920906, 37.422769534878078 ], [ -122.112312600844561, 37.422602679084811 ], [ -122.112141219784448, 37.422424043191896 ], [ -122.111988758472108, 37.422234791420735 ], [ -122.113368334673893, 37.421511615353886 ], [ -122.112995315572647, 37.421062631677579 ], [ -122.111622654138031, 37.421780434637533 ], [ -122.110702339370675, 37.420683174601784 ], [ -122.110090621280079, 37.419933380991132 ] ] ] } },
{ "type": "Feature", "properties": { "Station": "PALO ALTO CA \/ RINCONADA LIB 1", "Latitude": 37.44549631, "Longitude": -122.1388613, "zone_type": "P", "top_station": "RINCONADA LIB", "functional_zone_type": "residential" }, "geometry": { "type": "Polygon", "coordinates": [ [ [ -122.143165523681461, 37.44212547784884 ], [ -122.146847515631336, 37.444452335084911 ], [ -122.146369049137789, 37.444951810682404 ], [ -122.146359668213591, 37.44502160362206 ], [ -122.146248876787965, 37.445021866304813 ], [ -122.14490519118273, 37.445018923295471 ], [ -122.144909077496152, 37.444527947434018 ], [ -122.140580336587689, 37.444509014992065 ], [ -122.140578137501393, 37.444868034961658 ], [ -122.140543683142894, 37.444867911871448 ], [ -122.140544018423654, 37.445115043465144 ], [ -122.140545114815097, 37.445150820358414 ], [ -122.139854272441298, 37.445148635968557 ], [ -122.139750918663538, 37.445148706583701 ], [ -122.139750121994865, 37.445684605076281 ], [ -122.139648454416701, 37.445686190387242 ], [ -122.138993990051077, 37.445685662739322 ], [ -122.138167258644884, 37.445684762145916 ], [ -122.137795491522908, 37.445620674219676 ], [ -122.137601390653785, 37.445893867191408 ], [ -122.137555831394181, 37.445874423157065 ], [ -122.137742580190306, 37.445611551601608 ], [ -122.137608441610567, 37.44550404245993 ], [ -122.13747430230714, 37.445396534080736 ], [ -122.137429622084895, 37.445249128471211 ], [ -122.137384907010357, 37.445101723331717 ], [ -122.137412841321449, 37.444928774766311 ], [ -122.137443324064833, 37.444740106088581 ], [ -122.137440116152803, 37.444549957246799 ], [ -122.137436907740124, 37.444359836346607 ], [ -122.137390610633034, 37.444173282466366 ], [ -122.137330748899529, 37.443932173298627 ], [ -122.137297208969329, 37.443821447111752 ], [ -122.139797990369516, 37.443094182545479 ], [ -122.143165523681461, 37.44212547784884 ] ] ] } },
{ "type": "Feature", "properties": { "Station": "PALO ALTO CA \/ RINCONADA LIB 2", "Latitude": 37.44549838, "Longitude": -122.1388964, "zone_type": "P", "top_station": "RINCONADA LIB", "functional_zone_type": "residential" }, "geometry": { "type": "Polygon", "coordinates": [ [ [ -122.143165523681461, 37.44212547784884 ], [ -122.146847515631336, 37.444452335084911 ], [ -122.146369049137789, 37.444951810682404 ], [ -122.146359668213591, 37.44502160362206 ], [ -122.146248876787965, 37.445021866304813 ], [ -122.14490519118273, 37.445018923295471 ], [ -122.144909077496152, 37.444527947434018 ], [ -122.140580336587689, 37.444509014992065 ], [ -122.140578137501393, 37.444868034961658 ], [ -122.140543683142894, 37.444867911871448 ], [ -122.140544018423654, 37.445115043465144 ], [ -122.140545114815097, 37.445150820358414 ], [ -122.139854272441298, 37.445148635968557 ], [ -122.139750918663538, 37.445148706583701 ], [ -122.139750121994865, 37.445684605076281 ], [ -122.139648454416701, 37.445686190387242 ], [ -122.138993990051077, 37.445685662739322 ], [ -122.138167258644884, 37.445684762145916 ], [ -122.137795491522908, 37.445620674219676 ], [ -122.137601390653785, 37.445893867191408 ], [ -122.137555831394181, 37.445874423157065 ], [ -122.137742580190306, 37.445611551601608 ], [ -122.137608441610567, 37.44550404245993 ], [ -122.13747430230714, 37.445396534080736 ], [ -122.137429622084895, 37.445249128471211 ], [ -122.137384907010357, 37.445101723331717 ], [ -122.137412841321449, 37.444928774766311 ], [ -122.137443324064833, 37.444740106088581 ], [ -122.137440116152803, 37.444549957246799 ], [ -122.137436907740124, 37.444359836346607 ], [ -122.137390610633034, 37.444173282466366 ], [ -122.137330748899529, 37.443932173298627 ], [ -122.137297208969329, 37.443821447111752 ], [ -122.139797990369516, 37.443094182545479 ], [ -122.143165523681461, 37.44212547784884 ] ] ] } },
{ "type": "Feature", "properties": { "Station": "PALO ALTO CA \/ RINCONADA LIB 3", "Latitude": 37.4454956, "Longitude": -122.1389317, "zone_type": "P", "top_station": "RINCONADA LIB", "functional_zone_type": "residential" }, "geometry": { "type": "Polygon", "coordinates": [ [ [ -122.143165523681461, 37.44212547784884 ], [ -122.146847515631336, 37.444452335084911 ], [ -122.146369049137789, 37.444951810682404 ], [ -122.146359668213591, 37.44502160362206 ], [ -122.146248876787965, 37.445021866304813 ], [ -122.14490519118273, 37.445018923295471 ], [ -122.144909077496152, 37.444527947434018 ], [ -122.140580336587689, 37.444509014992065 ], [ -122.140578137501393, 37.444868034961658 ], [ -122.140543683142894, 37.444867911871448 ], [ -122.140544018423654, 37.445115043465144 ], [ -122.140545114815097, 37.445150820358414 ], [ -122.139854272441298, 37.445148635968557 ], [ -122.139750918663538, 37.445148706583701 ], [ -122.139750121994865, 37.445684605076281 ], [ -122.139648454416701, 37.445686190387242 ], [ -122.138993990051077, 37.445685662739322 ], [ -122.138167258644884, 37.445684762145916 ], [ -122.137795491522908, 37.445620674219676 ], [ -122.137601390653785, 37.445893867191408 ], [ -122.137555831394181, 37.445874423157065 ], [ -122.137742580190306, 37.445611551601608 ], [ -122.137608441610567, 37.44550404245993 ], [ -122.13747430230714, 37.445396534080736 ], [ -122.137429622084895, 37.445249128471211 ], [ -122.137384907010357, 37.445101723331717 ], [ -122.137412841321449, 37.444928774766311 ], [ -122.137443324064833, 37.444740106088581 ], [ -122.137440116152803, 37.444549957246799 ], [ -122.137436907740124, 37.444359836346607 ], [ -122.137390610633034, 37.444173282466366 ], [ -122.137330748899529, 37.443932173298627 ], [ -122.137297208969329, 37.443821447111752 ], [ -122.139797990369516, 37.443094182545479 ], [ -122.143165523681461, 37.44212547784884 ] ] ] } },
{ "type": "Feature", "properties": { "Station": "PALO ALTO CA \/ SHERMAN 1", "Latitude": 37.426598, "Longitude": -122.143288, "zone_type": "P", "top_station": "SHERMAN", "functional_zone_type": "mix_use" }, "geometry": { "type": "Polygon", "coordinates": [ [ [ -122.140723409908119, 37.427141173797402 ], [ -122.140949059122917, 37.42686593990598 ], [ -122.140941846805063, 37.426862167390546 ], [ -122.141116865563603, 37.426649665767378 ], [ -122.1415140162254, 37.426160439658382 ], [ -122.142014599439889, 37.426418152801347 ], [ -122.142908676734308, 37.426887549927692 ], [ -122.143111804661203, 37.426612874017593 ], [ -122.143630380642975, 37.426040412507646 ], [ -122.144130651151983, 37.426296142950591 ], [ -122.144061317839302, 37.426341504249599 ], [ -122.143461687755718, 37.42706214280939 ], [ -122.143358168950073, 37.427194345031282 ], [ -122.142600502317705, 37.428120214000529 ], [ -122.14242269003428, 37.428025738751515 ], [ -122.140723409908119, 37.427141173797402 ] ] ] } },
{ "type": "Feature", "properties": { "Station": "PALO ALTO CA \/ SHERMAN 11", "Latitude": 37.42672, "Longitude": -122.143326, "zone_type": "P", "top_station": "SHERMAN", "functional_zone_type": "mix_use" }, "geometry": { "type": "Polygon", "coordinates": [ [ [ -122.140723409908119, 37.427141173797402 ], [ -122.140949059122917, 37.42686593990598 ], [ -122.140941846805063, 37.426862167390546 ], [ -122.141116865563603, 37.426649665767378 ], [ -122.1415140162254, 37.426160439658382 ], [ -122.142014599439889, 37.426418152801347 ], [ -122.142908676734308, 37.426887549927692 ], [ -122.143111804661203, 37.426612874017593 ], [ -122.143630380642975, 37.426040412507646 ], [ -122.144130651151983, 37.426296142950591 ], [ -122.144061317839302, 37.426341504249599 ], [ -122.143461687755718, 37.42706214280939 ], [ -122.143358168950073, 37.427194345031282 ], [ -122.142600502317705, 37.428120214000529 ], [ -122.14242269003428, 37.428025738751515 ], [ -122.140723409908119, 37.427141173797402 ] ] ] } },
{ "type": "Feature", "properties": { "Station": "PALO ALTO CA \/ SHERMAN 14", "Latitude": 37.426777, "Longitude": -122.143311, "zone_type": "P", "top_station": "SHERMAN", "functional_zone_type": "mix_use" }, "geometry": { "type": "Polygon", "coordinates": [ [ [ -122.140723409908119, 37.427141173797402 ], [ -122.140949059122917, 37.42686593990598 ], [ -122.140941846805063, 37.426862167390546 ], [ -122.141116865563603, 37.426649665767378 ], [ -122.1415140162254, 37.426160439658382 ], [ -122.142014599439889, 37.426418152801347 ], [ -122.142908676734308, 37.426887549927692 ], [ -122.143111804661203, 37.426612874017593 ], [ -122.143630380642975, 37.426040412507646 ], [ -122.144130651151983, 37.426296142950591 ], [ -122.144061317839302, 37.426341504249599 ], [ -122.143461687755718, 37.42706214280939 ], [ -122.143358168950073, 37.427194345031282 ], [ -122.142600502317705, 37.428120214000529 ], [ -122.14242269003428, 37.428025738751515 ], [ -122.140723409908119, 37.427141173797402 ] ] ] } },
{ "type": "Feature", "properties": { "Station": "PALO ALTO CA \/ SHERMAN 15", "Latitude": 37.426773, "Longitude": -122.143402, "zone_type": "P", "top_station": "SHERMAN", "functional_zone_type": "mix_use" }, "geometry": { "type": "Polygon", "coordinates": [ [ [ -122.140723409908119, 37.427141173797402 ], [ -122.140949059122917, 37.42686593990598 ], [ -122.140941846805063, 37.426862167390546 ], [ -122.141116865563603, 37.426649665767378 ], [ -122.1415140162254, 37.426160439658382 ], [ -122.142014599439889, 37.426418152801347 ], [ -122.142908676734308, 37.426887549927692 ], [ -122.143111804661203, 37.426612874017593 ], [ -122.143630380642975, 37.426040412507646 ], [ -122.144130651151983, 37.426296142950591 ], [ -122.144061317839302, 37.426341504249599 ], [ -122.143461687755718, 37.42706214280939 ], [ -122.143358168950073, 37.427194345031282 ], [ -122.142600502317705, 37.428120214000529 ], [ -122.14242269003428, 37.428025738751515 ], [ -122.140723409908119, 37.427141173797402 ] ] ] } },
{ "type": "Feature", "properties": { "Station": "PALO ALTO CA \/ SHERMAN 17", "Latitude": 37.426823, "Longitude": -122.143394, "zone_type": "P", "top_station": "SHERMAN", "functional_zone_type": "mix_use" }, "geometry": { "type": "Polygon", "coordinates": [ [ [ -122.140723409908119, 37.427141173797402 ], [ -122.140949059122917, 37.42686593990598 ], [ -122.140941846805063, 37.426862167390546 ], [ -122.141116865563603, 37.426649665767378 ], [ -122.1415140162254, 37.426160439658382 ], [ -122.142014599439889, 37.426418152801347 ], [ -122.142908676734308, 37.426887549927692 ], [ -122.143111804661203, 37.426612874017593 ], [ -122.143630380642975, 37.426040412507646 ], [ -122.144130651151983, 37.426296142950591 ], [ -122.144061317839302, 37.426341504249599 ], [ -122.143461687755718, 37.42706214280939 ], [ -122.143358168950073, 37.427194345031282 ], [ -122.142600502317705, 37.428120214000529 ], [ -122.14242269003428, 37.428025738751515 ], [ -122.140723409908119, 37.427141173797402 ] ] ] } },
{ "type": "Feature", "properties": { "Station": "PALO ALTO CA \/ SHERMAN 2", "Latitude": 37.426537, "Longitude": -122.143341, "zone_type": "P", "top_station": "SHERMAN", "functional_zone_type": "mix_use" }, "geometry": { "type": "Polygon", "coordinates": [ [ [ -122.140723409908119, 37.427141173797402 ], [ -122.140949059122917, 37.42686593990598 ], [ -122.140941846805063, 37.426862167390546 ], [ -122.141116865563603, 37.426649665767378 ], [ -122.1415140162254, 37.426160439658382 ], [ -122.142014599439889, 37.426418152801347 ], [ -122.142908676734308, 37.426887549927692 ], [ -122.143111804661203, 37.426612874017593 ], [ -122.143630380642975, 37.426040412507646 ], [ -122.144130651151983, 37.426296142950591 ], [ -122.144061317839302, 37.426341504249599 ], [ -122.143461687755718, 37.42706214280939 ], [ -122.143358168950073, 37.427194345031282 ], [ -122.142600502317705, 37.428120214000529 ], [ -122.14242269003428, 37.428025738751515 ], [ -122.140723409908119, 37.427141173797402 ] ] ] } },
{ "type": "Feature", "properties": { "Station": "PALO ALTO CA \/ SHERMAN 3", "Latitude": 37.42662, "Longitude": -122.143326, "zone_type": "P", "top_station": "SHERMAN", "functional_zone_type": "mix_use" }, "geometry": { "type": "Polygon", "coordinates": [ [ [ -122.140723409908119, 37.427141173797402 ], [ -122.140949059122917, 37.42686593990598 ], [ -122.140941846805063, 37.426862167390546 ], [ -122.141116865563603, 37.426649665767378 ], [ -122.1415140162254, 37.426160439658382 ], [ -122.142014599439889, 37.426418152801347 ], [ -122.142908676734308, 37.426887549927692 ], [ -122.143111804661203, 37.426612874017593 ], [ -122.143630380642975, 37.426040412507646 ], [ -122.144130651151983, 37.426296142950591 ], [ -122.144061317839302, 37.426341504249599 ], [ -122.143461687755718, 37.42706214280939 ], [ -122.143358168950073, 37.427194345031282 ], [ -122.142600502317705, 37.428120214000529 ], [ -122.14242269003428, 37.428025738751515 ], [ -122.140723409908119, 37.427141173797402 ] ] ] } },
{ "type": "Feature", "properties": { "Station": "PALO ALTO CA \/ SHERMAN 4", "Latitude": 37.426563, "Longitude": -122.143379, "zone_type": "P", "top_station": "SHERMAN", "functional_zone_type": "mix_use" }, "geometry": { "type": "Polygon", "coordinates": [ [ [ -122.140723409908119, 37.427141173797402 ], [ -122.140949059122917, 37.42686593990598 ], [ -122.140941846805063, 37.426862167390546 ], [ -122.141116865563603, 37.426649665767378 ], [ -122.1415140162254, 37.426160439658382 ], [ -122.142014599439889, 37.426418152801347 ], [ -122.142908676734308, 37.426887549927692 ], [ -122.143111804661203, 37.426612874017593 ], [ -122.143630380642975, 37.426040412507646 ], [ -122.144130651151983, 37.426296142950591 ], [ -122.144061317839302, 37.426341504249599 ], [ -122.143461687755718, 37.42706214280939 ], [ -122.143358168950073, 37.427194345031282 ], [ -122.142600502317705, 37.428120214000529 ], [ -122.14242269003428, 37.428025738751515 ], [ -122.140723409908119, 37.427141173797402 ] ] ] } },
{ "type": "Feature", "properties": { "Station": "PALO ALTO CA \/ SHERMAN 5", "Latitude": 37.426643, "Longitude": -122.143372, "zone_type": "P", "top_station": "SHERMAN", "functional_zone_type": "mix_use" }, "geometry": { "type": "Polygon", "coordinates": [ [ [ -122.140723409908119, 37.427141173797402 ], [ -122.140949059122917, 37.42686593990598 ], [ -122.140941846805063, 37.426862167390546 ], [ -122.141116865563603, 37.426649665767378 ], [ -122.1415140162254, 37.426160439658382 ], [ -122.142014599439889, 37.426418152801347 ], [ -122.142908676734308, 37.426887549927692 ], [ -122.143111804661203, 37.426612874017593 ], [ -122.143630380642975, 37.426040412507646 ], [ -122.144130651151983, 37.426296142950591 ], [ -122.144061317839302, 37.426341504249599 ], [ -122.143461687755718, 37.42706214280939 ], [ -122.143358168950073, 37.427194345031282 ], [ -122.142600502317705, 37.428120214000529 ], [ -122.14242269003428, 37.428025738751515 ], [ -122.140723409908119, 37.427141173797402 ] ] ] } },
{ "type": "Feature", "properties": { "Station": "PALO ALTO CA \/ SHERMAN 6", "Latitude": 37.426582, "Longitude": -122.143425, "zone_type": "P", "top_station": "SHERMAN", "functional_zone_type": "mix_use" }, "geometry": { "type": "Polygon", "coordinates": [ [ [ -122.140723409908119, 37.427141173797402 ], [ -122.140949059122917, 37.42686593990598 ], [ -122.140941846805063, 37.426862167390546 ], [ -122.141116865563603, 37.426649665767378 ], [ -122.1415140162254, 37.426160439658382 ], [ -122.142014599439889, 37.426418152801347 ], [ -122.142908676734308, 37.426887549927692 ], [ -122.143111804661203, 37.426612874017593 ], [ -122.143630380642975, 37.426040412507646 ], [ -122.144130651151983, 37.426296142950591 ], [ -122.144061317839302, 37.426341504249599 ], [ -122.143461687755718, 37.42706214280939 ], [ -122.143358168950073, 37.427194345031282 ], [ -122.142600502317705, 37.428120214000529 ], [ -122.14242269003428, 37.428025738751515 ], [ -122.140723409908119, 37.427141173797402 ] ] ] } },
{ "type": "Feature", "properties": { "Station": "PALO ALTO CA \/ SHERMAN 7", "Latitude": 37.426655, "Longitude": -122.143417, "zone_type": "P", "top_station": "SHERMAN", "functional_zone_type": "mix_use" }, "geometry": { "type": "Polygon", "coordinates": [ [ [ -122.140723409908119, 37.427141173797402 ], [ -122.140949059122917, 37.42686593990598 ], [ -122.140941846805063, 37.426862167390546 ], [ -122.141116865563603, 37.426649665767378 ], [ -122.1415140162254, 37.426160439658382 ], [ -122.142014599439889, 37.426418152801347 ], [ -122.142908676734308, 37.426887549927692 ], [ -122.143111804661203, 37.426612874017593 ], [ -122.143630380642975, 37.426040412507646 ], [ -122.144130651151983, 37.426296142950591 ], [ -122.144061317839302, 37.426341504249599 ], [ -122.143461687755718, 37.42706214280939 ], [ -122.143358168950073, 37.427194345031282 ], [ -122.142600502317705, 37.428120214000529 ], [ -122.14242269003428, 37.428025738751515 ], [ -122.140723409908119, 37.427141173797402 ] ] ] } },
{ "type": "Feature", "properties": { "Station": "PALO ALTO CA \/ SHERMAN 8", "Latitude": 37.426617, "Longitude": -122.143456, "zone_type": "P", "top_station": "SHERMAN", "functional_zone_type": "mix_use" }, "geometry": { "type": "Polygon", "coordinates": [ [ [ -122.140723409908119, 37.427141173797402 ], [ -122.140949059122917, 37.42686593990598 ], [ -122.140941846805063, 37.426862167390546 ], [ -122.141116865563603, 37.426649665767378 ], [ -122.1415140162254, 37.426160439658382 ], [ -122.142014599439889, 37.426418152801347 ], [ -122.142908676734308, 37.426887549927692 ], [ -122.143111804661203, 37.426612874017593 ], [ -122.143630380642975, 37.426040412507646 ], [ -122.144130651151983, 37.426296142950591 ], [ -122.144061317839302, 37.426341504249599 ], [ -122.143461687755718, 37.42706214280939 ], [ -122.143358168950073, 37.427194345031282 ], [ -122.142600502317705, 37.428120214000529 ], [ -122.14242269003428, 37.428025738751515 ], [ -122.140723409908119, 37.427141173797402 ] ] ] } },
{ "type": "Feature", "properties": { "Station": "PALO ALTO CA \/ SHERMAN 9", "Latitude": 37.42667, "Longitude": -122.143257, "zone_type": "P", "top_station": "SHERMAN", "functional_zone_type": "mix_use" }, "geometry": { "type": "Polygon", "coordinates": [ [ [ -122.140723409908119, 37.427141173797402 ], [ -122.140949059122917, 37.42686593990598 ], [ -122.140941846805063, 37.426862167390546 ], [ -122.141116865563603, 37.426649665767378 ], [ -122.1415140162254, 37.426160439658382 ], [ -122.142014599439889, 37.426418152801347 ], [ -122.142908676734308, 37.426887549927692 ], [ -122.143111804661203, 37.426612874017593 ], [ -122.143630380642975, 37.426040412507646 ], [ -122.144130651151983, 37.426296142950591 ], [ -122.144061317839302, 37.426341504249599 ], [ -122.143461687755718, 37.42706214280939 ], [ -122.143358168950073, 37.427194345031282 ], [ -122.142600502317705, 37.428120214000529 ], [ -122.14242269003428, 37.428025738751515 ], [ -122.140723409908119, 37.427141173797402 ] ] ] } },
{ "type": "Feature", "properties": { "Station": "PALO ALTO CA \/ TED THOMPSON #1", "Latitude": 37.428318, "Longitude": -122.144188, "zone_type": "P", "top_station": "TED THOMPSON", "functional_zone_type": "mix_use" }, "geometry": { "type": "Polygon", "coordinates": [ [ [ -122.143760499468954, 37.428501415631125 ], [ -122.144233257607866, 37.427928220059158 ], [ -122.144580156130786, 37.428110146914868 ], [ -122.144345887745189, 37.428390837516176 ], [ -122.144107553664028, 37.428684083409138 ], [ -122.143760499468954, 37.428501415631125 ] ] ] } },
{ "type": "Feature", "properties": { "Station": "PALO ALTO CA \/ TED THOMPSON #2", "Latitude": 37.42857, "Longitude": -122.143929, "zone_type": "P", "top_station": "TED THOMPSON", "functional_zone_type": "mix_use" }, "geometry": { "type": "Polygon", "coordinates": [ [ [ -122.143760499468954, 37.428501415631125 ], [ -122.144233257607866, 37.427928220059158 ], [ -122.144580156130786, 37.428110146914868 ], [ -122.144345887745189, 37.428390837516176 ], [ -122.144107553664028, 37.428684083409138 ], [ -122.143760499468954, 37.428501415631125 ] ] ] } },
{ "type": "Feature", "properties": { "Station": "PALO ALTO CA \/ TED THOMPSON #3", "Latitude": 37.428623, "Longitude": -122.144043, "zone_type": "P", "top_station": "TED THOMPSON", "functional_zone_type": "mix_use" }, "geometry": { "type": "Polygon", "coordinates": [ [ [ -122.143760499468954, 37.428501415631125 ], [ -122.144233257607866, 37.427928220059158 ], [ -122.144580156130786, 37.428110146914868 ], [ -122.144345887745189, 37.428390837516176 ], [ -122.144107553664028, 37.428684083409138 ], [ -122.143760499468954, 37.428501415631125 ] ] ] } },
{ "type": "Feature", "properties": { "Station": "PALO ALTO CA \/ TED THOMPSON #4", "Latitude": 37.4286, "Longitude": -122.14399, "zone_type": "P", "top_station": "TED THOMPSON", "functional_zone_type": "mix_use" }, "geometry": { "type": "Polygon", "coordinates": [ [ [ -122.143760499468954, 37.428501415631125 ], [ -122.144233257607866, 37.427928220059158 ], [ -122.144580156130786, 37.428110146914868 ], [ -122.144345887745189, 37.428390837516176 ], [ -122.144107553664028, 37.428684083409138 ], [ -122.143760499468954, 37.428501415631125 ] ] ] } },
{ "type": "Feature", "properties": { "Station": "PALO ALTO CA \/ WEBSTER #1", "Latitude": 37.44829771, "Longitude": -122.1582655, "zone_type": "P", "top_station": "WEBSTER", "functional_zone_type": "mix_use" }, "geometry": { "type": "Polygon", "coordinates": [ [ [ -122.157643320079984, 37.449289461303216 ], [ -122.157512704917551, 37.449207223353248 ], [ -122.157568781699439, 37.449147703388505 ], [ -122.157895205330746, 37.448814703190223 ], [ -122.15762495649814, 37.448644395408749 ], [ -122.157503321363535, 37.448567772221423 ], [ -122.157610110060986, 37.448460014526788 ], [ -122.15732634198919, 37.448281216590402 ], [ -122.157347706024368, 37.448259653646851 ], [ -122.157631475815876, 37.44843847944459 ], [ -122.15802237213714, 37.448044163956297 ], [ -122.158225074773071, 37.448171886945097 ], [ -122.158427778103004, 37.448299609582563 ], [ -122.158656315517703, 37.448069047977135 ], [ -122.158724328990772, 37.448002546516662 ], [ -122.158808292927944, 37.44805374250808 ], [ -122.158740044064459, 37.448122060572295 ], [ -122.158511536909486, 37.448352402920307 ], [ -122.158542635590393, 37.448371988284961 ], [ -122.15834398675976, 37.448572378508985 ], [ -122.158350731025763, 37.448576622527987 ], [ -122.158147801471799, 37.448781331087289 ], [ -122.158517469294353, 37.449012917211597 ], [ -122.158495935892475, 37.449036212177596 ], [ -122.158126471418925, 37.448802893696651 ], [ -122.157709925996897, 37.449223062354299 ], [ -122.157643320079984, 37.449289461303216 ] ] ] } },
{ "type": "Feature", "properties": { "Station": "PALO ALTO CA \/ WEBSTER #2", "Latitude": 37.44825424, "Longitude": -122.1581972, "zone_type": "P", "top_station": "WEBSTER", "functional_zone_type": "mix_use" }, "geometry": { "type": "Polygon", "coordinates": [ [ [ -122.157643320079984, 37.449289461303216 ], [ -122.157512704917551, 37.449207223353248 ], [ -122.157568781699439, 37.449147703388505 ], [ -122.157895205330746, 37.448814703190223 ], [ -122.15762495649814, 37.448644395408749 ], [ -122.157503321363535, 37.448567772221423 ], [ -122.157610110060986, 37.448460014526788 ], [ -122.15732634198919, 37.448281216590402 ], [ -122.157347706024368, 37.448259653646851 ], [ -122.157631475815876, 37.44843847944459 ], [ -122.15802237213714, 37.448044163956297 ], [ -122.158225074773071, 37.448171886945097 ], [ -122.158427778103004, 37.448299609582563 ], [ -122.158656315517703, 37.448069047977135 ], [ -122.158724328990772, 37.448002546516662 ], [ -122.158808292927944, 37.44805374250808 ], [ -122.158740044064459, 37.448122060572295 ], [ -122.158511536909486, 37.448352402920307 ], [ -122.158542635590393, 37.448371988284961 ], [ -122.15834398675976, 37.448572378508985 ], [ -122.158350731025763, 37.448576622527987 ], [ -122.158147801471799, 37.448781331087289 ], [ -122.158517469294353, 37.449012917211597 ], [ -122.158495935892475, 37.449036212177596 ], [ -122.158126471418925, 37.448802893696651 ], [ -122.157709925996897, 37.449223062354299 ], [ -122.157643320079984, 37.449289461303216 ] ] ] } },
{ "type": "Feature", "properties": { "Station": "PALO ALTO CA \/ WEBSTER #3", "Latitude": 37.44875471, "Longitude": -122.1580248, "zone_type": "P", "top_station": "WEBSTER", "functional_zone_type": "mix_use" }, "geometry": { "type": "Polygon", "coordinates": [ [ [ -122.157643320079984, 37.449289461303216 ], [ -122.157512704917551, 37.449207223353248 ], [ -122.157568781699439, 37.449147703388505 ], [ -122.157895205330746, 37.448814703190223 ], [ -122.15762495649814, 37.448644395408749 ], [ -122.157503321363535, 37.448567772221423 ], [ -122.157610110060986, 37.448460014526788 ], [ -122.15732634198919, 37.448281216590402 ], [ -122.157347706024368, 37.448259653646851 ], [ -122.157631475815876, 37.44843847944459 ], [ -122.15802237213714, 37.448044163956297 ], [ -122.158225074773071, 37.448171886945097 ], [ -122.158427778103004, 37.448299609582563 ], [ -122.158656315517703, 37.448069047977135 ], [ -122.158724328990772, 37.448002546516662 ], [ -122.158808292927944, 37.44805374250808 ], [ -122.158740044064459, 37.448122060572295 ], [ -122.158511536909486, 37.448352402920307 ], [ -122.158542635590393, 37.448371988284961 ], [ -122.15834398675976, 37.448572378508985 ], [ -122.158350731025763, 37.448576622527987 ], [ -122.158147801471799, 37.448781331087289 ], [ -122.158517469294353, 37.449012917211597 ], [ -122.158495935892475, 37.449036212177596 ], [ -122.158126471418925, 37.448802893696651 ], [ -122.157709925996897, 37.449223062354299 ], [ -122.157643320079984, 37.449289461303216 ] ] ] } }
]
}
